ORBCOMM FM33 [-]        
1 25983U 99065D   24109.38773845  .00003394  00000+0  11683-2 0  9996
2 25983  45.0276 214.7518 0007086  92.4174  17.6586 14.37550048274888
ORBCOMM FM36 [-]        
1 25984U 99065E   24109.51263706  .00003651  00000+0  13080-2 0  9991
2 25984  45.0394 299.2862 0002899 319.0827  40.9803 14.35423016273343
ORBCOMM FM34 [-]        
1 25986U 99065G   24109.51811468  .00002616  00000+0  95938-3 0  9990
2 25986  45.0394 302.3681 0003231  19.0817 341.0151 14.34994447273854
ORBCOMM FM38 [-]        
1 33060U 08031A   24109.38361819  .00004693  00000+0  68215-3 0  9995
2 33060  48.4399 173.5753 0005425   9.9997 350.1024 14.77330108851857
ORBCOMM FM41 [-]        
1 33061U 08031B   24109.44326035  .00004740  00000+0  69295-3 0  9996
2 33061  48.4436 179.8611 0004811 354.4818 101.7349 14.77063149851364
ORBCOMM FM29 [-]        
1 33062U 08031C   24109.01724841  .00005722  00000+0  83182-3 0  9999
2 33062  48.4384 189.9118 0006598 353.9666  62.4943 14.76985926851212
ORBCOMM FM39 [-]        
1 33063U 08031D   24109.49862030  .00004334  00000+0  65156-3 0  9994
2 33063  48.4397 207.9852 0007715 333.0524  26.9988 14.76018809850981
